OBJECT_NAME,OBJECT_ID,EPOCH,MEAN_MOTION,ECCENTRICITY,INCLINATION,RA_OF_ASC_NODE,ARG_OF_PERICENTER,MEAN_ANOMALY,EPHEMERIS_TYPE,CLASSIFICATION_TYPE,NORAD_CAT_ID,ELEMENT_SET_NO,REV_AT_EPOCH,BSTAR,MEAN_MOTION_DOT,MEAN_MOTION_DDOT
BEIDOU-3 G1,2018-085A,2026-07-20T22:26:37.281408,1.00272732,.00082082,2.9522,96.4613,356.8634,342.0180,0,U,43683,999,2839,0,-.11E-5,0
GSAT-29,2018-089A,2026-07-20T21:56:40.151904,1.00269761,.00032402,0.0407,244.3264,216.5608,222.0058,0,U,43698,999,2812,0,.85E-6,0
ES'HAIL 2,2018-090A,2026-07-20T08:07:04.463904,1.00274071,.00024517,0.0208,80.1003,77.6851,287.8888,0,U,43700,999,2800,0,.143E-5,0
GEO-KOMPSAT-2A,2018-100A,2026-07-20T22:26:38.785632,1.00272115,.00024324,0.0289,144.4621,313.0409,306.1207,0,U,43823,999,2796,0,-.344E-5,0
GSAT-11,2018-100B,2026-07-20T08:20:48.147072,1.00271833,.0007882,0.0400,246.3453,212.3284,38.6478,0,U,43824,999,2781,0,-.79E-6,0
GSAT-7A,2018-105A,2026-07-20T21:58:54.936768,1.00273183,.00019161,0.0987,91.1670,22.0466,217.9515,0,U,43864,999,2778,0,.26E-6,0
COSMOS 2533,2018-107A,2026-07-20T10:02:23.404416,1.00275358,.00002664,0.0349,116.7394,113.1182,288.9227,0,U,43867,999,2778,0,-.41E-6,0
TJS-3,2018-110A,2026-07-20T17:15:16.435872,1.00271175,.0002694,2.6291,80.0898,85.5737,179.8611,0,U,43874,999,2775,0,-.219E-5,0
ZHONGXING-2D,2019-001A,2026-07-20T22:18:08.094240,1.00271873,.00004818,0.0144,225.2548,155.7329,22.2788,0,U,43920,999,5441,0,0,0
HELLAS-SAT 4 & SGS-1,2019-007A,2026-07-20T11:36:14.605632,1.00270485,.00058607,0.0673,126.3555,19.7045,5.2586,0,U,44034,999,2770,0,.151E-5,0
GSAT-31,2019-007B,2026-07-20T21:54:40.343616,1.00274098,.00008216,0.0284,100.6562,111.9782,102.5964,0,U,44035,999,2730,0,.125E-5,0
NUSANTARA SATU,2019-009A,2026-07-20T22:22:37.663968,1.00270749,.00048625,0.0315,118.3603,9.2770,292.7178,0,U,44048,999,2710,0,-.235E-5,0
ZHONGXING-6C,2019-012A,2026-07-20T22:18:08.094240,1.00272682,.00150284,0.0598,67.9899,346.8071,348.8900,0,U,44067,999,2707,0,-.335E-5,0
WGS 10 (USA 291),2019-014A,2026-07-20T19:52:38.682336,1.00271906,.00001729,0.0144,76.9245,352.7599,227.3680,0,U,44071,999,2695,0,.46E-6,0
TIANLIAN 2-01,2019-017A,2026-07-20T18:22:21.806688,1.00271362,.00016697,0.6245,83.0613,74.9980,133.0707,0,U,44076,999,2698,0,-.107E-5,0
ARABSAT-6A,2019-021A,2026-07-20T20:16:38.720640,1.00263206,.00029169,0.0440,4.1115,243.8676,25.2925,0,U,44186,999,2649,0,.153E-5,0
BEIDOU-3 IGSO-1,2019-023A,2026-07-16T07:41:18.119904,1.00282972,.00259114,58.7368,37.3490,224.0979,267.2124,0,U,44204,999,750,0,-.209E-5,0
BEIDOU-2 G8,2019-027A,2026-07-20T22:22:15.199968,1.00270393,.00096536,1.7420,74.5137,283.3153,60.9473,0,U,44231,999,2641,0,-.249E-5,0
YAMAL 601,2019-031A,2026-07-20T23:47:41.673984,1.00272072,.00026303,0.0164,95.6500,21.0949,227.9263,0,U,44307,999,2626,0,.12E-5,0
AT&T T-16,2019-034A,2026-07-20T17:20:38.412384,1.00269337,.0000549,0.0140,69.7828,297.6234,90.3851,0,U,44333,999,2597,0,-.115E-5,0
EUTELSAT 7C,2019-034B,2026-07-20T14:52:21.972864,1.00274621,.0003352,0.0773,181.5156,286.1418,60.8309,0,U,44334,999,717,0,.48E-6,0
BEIDOU-3 IGSO-2,2019-035A,2026-07-20T06:50:53.025216,1.00256016,.00392668,55.2517,158.5718,216.3906,144.0267,0,U,44337,999,2600,0,-.108E-5,0
COSMOS 2539,2019-048A,2026-07-20T08:03:12.333888,1.00272923,.00007551,0.0291,108.0411,82.6864,240.1781,0,U,44457,999,2555,0,.79E-6,0
EDRS-C,2019-049A,2026-07-20T22:21:37.759392,1.00271095,.00010941,0.0174,121.7407,8.6107,286.2462,0,U,44475,999,2554,0,-.262E-5,0
INTELSAT 39 (IS-39),2019-049B,2026-07-20T17:52:21.578880,1.00259151,.00001854,0.0184,50.2484,231.2802,347.0224,0,U,44476,999,2546,0,0,0
AMOS-17,2019-050A,2026-07-20T20:03:13.048416,1.00269942,.00015233,0.0164,13.8163,100.3947,142.1949,0,U,44479,999,2552,0,.109E-5,0
AEHF-5 (USA 292),2019-051A,2026-07-20T22:07:39.098784,1.00272688,.00647474,1.4266,338.8785,357.3565,27.4562,0,U,44481,999,2560,0,-.257E-5,0
EUTELSAT 5 WEST B,2019-067A,2026-07-20T19:56:51.157824,1.00271669,.00031992,0.0752,323.5301,154.9122,114.3565,0,U,44624,999,2477,0,-.43E-6,0
TJS-4,2019-070A,2026-07-20T20:22:14.387232,1.00273705,.00001927,0.0955,259.6660,19.4995,48.5914,0,U,44637,999,2487,0,-.171E-5,0
TIBA-1,2019-080A,2026-07-20T20:08:38.799744,1.00276036,.00022782,0.0507,355.2839,139.6765,141.3154,0,U,44800,999,2439,0,.156E-5,0
INMARSAT GX5,2019-080B,2026-07-20T22:52:28.811136,1.00270959,.0002236,0.0361,21.0275,105.5632,166.2462,0,U,44801,999,712,0,.75E-6,0
JCSAT-18 (KACIFIC 1),2019-091A,2026-07-20T18:57:38.685312,1.00267388,.00003323,0.0443,239.0708,27.7865,106.0702,0,U,44868,999,2434,0,-.202E-5,0
