BEIDOU-3 G1             
1 43683U 18085A   26201.93515372 -.00000110  00000+0  00000+0 0  9993
2 43683   2.9522  96.4613 0008208 356.8634 342.0180  1.00272732 28392
GSAT-29                 
1 43698U 18089A   26201.91435361  .00000085  00000+0  00000+0 0  9990
2 43698   0.0407 244.3264 0003240 216.5608 222.0058  1.00269761 28129
ES'HAIL 2               
1 43700U 18090A   26201.33824611  .00000143  00000+0  00000+0 0  9997
2 43700   0.0208  80.1003 0002451  77.6851 287.8888  1.00274071 28005
GEO-KOMPSAT-2A          
1 43823U 18100A   26201.93517113 -.00000344  00000+0  00000+0 0  9991
2 43823   0.0289 144.4621 0002432 313.0409 306.1207  1.00272115 27966
GSAT-11                 
1 43824U 18100B   26201.34777948 -.00000079  00000+0  00000+0 0  9996
2 43824   0.0400 246.3453 0007882 212.3284  38.6478  1.00271833 27810
GSAT-7A                 
1 43864U 18105A   26201.91591362  .00000026  00000+0  00000+0 0  9993
2 43864   0.0987  91.1670 0001916  22.0466 217.9515  1.00273183 27781
COSMOS 2533             
1 43867U 18107A   26201.41832644 -.00000041  00000+0  00000+0 0  9992
2 43867   0.0349 116.7394 0000266 113.1182 288.9227  1.00275358 27781
TJS-3                   
1 43874U 18110A   26201.71894023 -.00000219  00000+0  00000+0 0  9993
2 43874   2.6291  80.0898 0002694  85.5737 179.8611  1.00271175 27755
ZHONGXING-2D            
1 43920U 19001A   26201.92926035  .00000000  00000+0  00000+0 0  9994
2 43920   0.0144 225.2548 0000481 155.7329  22.2788  1.00271873 54414
HELLAS-SAT 4 & SGS-1    
1 44034U 19007A   26201.48350238  .00000151  00000+0  00000+0 0  9991
2 44034   0.0673 126.3555 0005860  19.7045   5.2586  1.00270485 27704
GSAT-31                 
1 44035U 19007B   26201.91296694  .00000125  00000+0  00000+0 0  9996
2 44035   0.0284 100.6562 0000821 111.9782 102.5964  1.00274098 27302
NUSANTARA SATU          
1 44048U 19009A   26201.93238037 -.00000235  00000+0  00000+0 0  9994
2 44048   0.0315 118.3603 0004862   9.2770 292.7178  1.00270749 27104
ZHONGXING-6C            
1 44067U 19012A   26201.92926035 -.00000335  00000+0  00000+0 0  9991
2 44067   0.0598  67.9899 0015028 346.8071 348.8900  1.00272682 27074
WGS 10 (USA 291)        
1 44071U 19014A   26201.82822549  .00000046  00000+0  00000+0 0  9990
2 44071   0.0144  76.9245 0000172 352.7599 227.3680  1.00271906 26956
TIANLIAN 2-01           
1 44076U 19017A   26201.76553017 -.00000107  00000+0  00000+0 0  9991
2 44076   0.6245  83.0613 0001669  74.9980 133.0707  1.00271362 26988
ARABSAT-6A              
1 44186U 19021A   26201.84489260  .00000153  00000+0  00000+0 0  9995
2 44186   0.0440   4.1115 0002916 243.8676  25.2925  1.00263206 26495
BEIDOU-3 IGSO-1         
1 44204U 19023A   26197.32034861 -.00000209  00000+0  00000+0 0  9991
2 44204  58.7368  37.3490 0025911 224.0979 267.2124  1.00282972  7507
BEIDOU-2 G8             
1 44231U 19027A   26201.93212037 -.00000249  00000+0  00000+0 0  9995
2 44231   1.7420  74.5137 0009653 283.3153  60.9473  1.00270393 26412
YAMAL 601               
1 44307U 19031A   26201.99145456  .00000120  00000+0  00000+0 0  9997
2 44307   0.0164  95.6500 0002630  21.0949 227.9263  1.00272072 26260
AT&T T-16               
1 44333U 19034A   26201.72266681 -.00000115  00000+0  00000+0 0  9999
2 44333   0.0140  69.7828 0000549 297.6234  90.3851  1.00269337 25975
EUTELSAT 7C             
1 44334U 19034B   26201.61969876  .00000048  00000+0  00000+0 0  9998
2 44334   0.0773 181.5156 0003352 286.1418  60.8309  1.00274621  7171
BEIDOU-3 IGSO-2         
1 44337U 19035A   26201.28533594 -.00000108  00000+0  00000+0 0  9997
2 44337  55.2517 158.5718 0039266 216.3906 144.0267  1.00256016 26009
COSMOS 2539             
1 44457U 19048A   26201.33555942  .00000079  00000+0  00000+0 0  9997
2 44457   0.0291 108.0411 0000755  82.6864 240.1781  1.00272923 25550
EDRS-C                  
1 44475U 19049A   26201.93168703 -.00000262  00000+0  00000+0 0  9994
2 44475   0.0174 121.7407 0001094   8.6107 286.2462  1.00271095 25547
INTELSAT 39 (IS-39)     
1 44476U 19049B   26201.74469420  .00000000  00000+0  00000+0 0  9993
2 44476   0.0184  50.2484 0000185 231.2802 347.0224  1.00259151 25468
AMOS-17                 
1 44479U 19050A   26201.83556769  .00000109  00000+0  00000+0 0  9991
2 44479   0.0164  13.8163 0001523 100.3947 142.1949  1.00269942 25525
AEHF-5 (USA 292)        
1 44481U 19051A   26201.92198031 -.00000257  00000+0  00000+0 0  9994
2 44481   1.4266 338.8785 0064747 357.3565  27.4562  1.00272688 25609
EUTELSAT 5 WEST B       
1 44624U 19067A   26201.83114766 -.00000043  00000+0  00000+0 0  9996
2 44624   0.0752 323.5301 0003199 154.9122 114.3565  1.00271669 24776
TJS-4                   
1 44637U 19070A   26201.84877763 -.00000171  00000+0  00000+0 0  9990
2 44637   0.0955 259.6660 0000192  19.4995  48.5914  1.00273705 24875
TIBA-1                  
1 44800U 19080A   26201.83933796  .00000156  00000+0  00000+0 0  9993
2 44800   0.0507 355.2839 0002278 139.6765 141.3154  1.00276036 24393
INMARSAT GX5            
1 44801U 19080B   26201.95311124  .00000075  00000+0  00000+0 0  9992
2 44801   0.0361  21.0275 0002236 105.5632 166.2462  1.00270959  7121
JCSAT-18 (KACIFIC 1)    
1 44868U 19091A   26201.79003108 -.00000202  00000+0  00000+0 0  9992
2 44868   0.0443 239.0708 0000332  27.7865 106.0702  1.00267388 24349
